0 FENGYUN 1C DEB
1 31516U 99025BXF 13284.04588115  .00000540  00000-0  24645-3 0  6216
2 31516 098.9085 350.7130 0161881 080.6391 036.8132 14.18840538333765
0 FENGYUN 1C DEB
1 31516U 99025BXF 13286.43176046  .00000458  00000-0  21208-3 0  6228
2 31516 098.9082 353.1110 0161781 073.8504 343.4392 14.18842925334102
0 FENGYUN 1C DEB
1 31516U 99025BXF 13288.98330212  .00000635  00000-0  28648-3 0  6230
2 31516 098.9076 355.6756 0161690 066.5744 056.2828 14.18847157334466
0 FENGYUN 1C DEB
1 31516U 99025BXF 13291.02757066  .00000574  00000-0  26119-3 0  6243
2 31516 098.9070 357.7301 0161579 060.7481 058.0824 14.18849836334753
0 FENGYUN 1C DEB
1 31516U 99025BXF 13296.16270681  .00000618  00000-0  27997-3 0  6251
2 31516 098.9067 002.8903 0161315 046.0914 007.6507 14.18856479335481
